LEMUR-2-ARIANNA         
1 62699U 25009CU  26159.76602995  .00009005  00000+0  68470-3 0  9996
2 62699  97.6884 241.2171 0003271 141.5313 218.6145 15.02360819 76291
LEMUR-2-ALISIA          
1 62706U 25009DB  26160.21168303  .00006640  00000+0  50240-3 0  9995
2 62706  97.6966 242.4360 0001074 189.5566 170.5638 15.02655893 98965
LEMUR-2-ROUNDTRIPPER    
1 62711U 25009DG  26159.77585948  .00009780  00000+0  71826-3 0  9999
2 62711  97.7242 242.4675 0004446 158.6746 201.4666 15.03652047 76365
LEMUR-2-MYNAMEISJEFF    
1 62712U 25009DH  26159.97396667  .00007449  00000+0  54819-3 0  9993
2 62712  97.7291 243.0413 0002725 184.8460 175.2740 15.03666805 76390
LEMUR-2-LEIA-PHILIP     
1 63246U 25052AN  26160.18399157  .00002014  00000+0  17873-3 0  9998
2 63246  97.6847  52.2692 0002039 243.2952 116.8062 14.97294512 67473
LEMUR-2-LIA-MARTIN      
1 63248U 25052AQ  26160.25833865  .00004655  00000+0  40178-3 0  9994
2 63248  97.6912  52.8052 0002410 169.1690 190.9585 14.97739704 67494
LEMUR-2-DELOITTE-1      
1 63259U 25052BB  26160.23365810  .00003271  00000+0  28527-3 0  9991
2 63259  97.6921  53.1100 0002580 113.5656 246.5838 14.97541735 67503
LEMUR-2-EMERSONROSE     
1 63261U 25052BD  26160.28343278  .00002797  00000+0  23556-3 0  9992
2 63261  97.6905  53.7030 0002362  69.9331 290.2146 14.99026548 67553
LEMUR-2-MARACHE-FRAN    
1 63262U 25052BE  26160.19736906  .00005180  00000+0  42091-3 0  9991
2 63262  97.6949  53.9165 0006127  49.2865 310.8890 15.00017372 67563
LEMUR-2-THEFALCONER     
1 63264U 25052BG  26159.92480879  .00004314  00000+0  37658-3 0  9998
2 63264  97.6879  52.4349 0003564  58.2643 301.8926 14.97337150 67453
LEMUR-2-UNTITLED-SC     
1 63351U 25061A   26159.89029124  .00003719  00000+0  21128-3 0  9996
2 63351  97.5630 135.3128 0017128 296.2947  63.6524 15.13414598 66336
LEMUR-2-ESPERANZA       
1 63352U 25061B   26160.19850548  .00003201  00000+0  18194-3 0  9999
2 63352  97.5639 135.7106 0016670 294.6014  65.3479 15.13510847 66381
LEMUR-2-KREMPEL-BRO2    
1 63353U 25061C   26159.89730644  .00003675  00000+0  20577-3 0  9992
2 63353  97.5684 135.9341 0017533 287.2298  72.7014 15.13942866 66350
LEMUR-2-THERMORAPTOR    
1 63354U 25061D   26160.21026158  .00003713  00000+0  20739-3 0  9992
2 63354  97.5691 136.3194 0017231 284.9652  74.9672 15.14023323 66402
LEMUR-2-NEUROSPICY      
1 63355U 25061E   26160.18253804  .00003037  00000+0  16991-3 0  9993
2 63355  97.5616 135.9244 0015035 289.4164  70.5442 15.14137864 66402
LEMUR-2-TILLINFINITY    
1 63356U 25061F   26160.22089328  .00003689  00000+0  20217-3 0  9996
2 63356  97.5603 136.2473 0016252 275.8172  84.1207 15.14724474 66439
LEMUR-2-KREMPEL-BRO1    
1 63357U 25061G   26160.19334121  .00003185  00000+0  17597-3 0  9995
2 63357  97.5604 136.1383 0016843 277.2249  82.7067 15.14530251 66422
LEMUR-2-LANGER2SPACE    
1 63358U 25061H   26159.88784097  .00004013  00000+0  22277-3 0  9993
2 63358  97.5608 135.6518 0014978 288.5876  71.3728 15.14224922 66365
LEMUR-2-BALTO           
1 63395U 25052BH  26160.18195503  .00004971  00000+0  40427-3 0  9997
2 63395  97.6884  53.8855 0006704  77.9879 282.2096 14.99998622 67560
LEMUR-2-KRISH           
1 64561U 25135AK  26160.24953296  .00004234  00000+0  38137-3 0  9990
2 64561  97.7723 275.1820 0001285 108.4323 251.7038 14.96130063 52737
LEMUR-2-HUBBLE-4        
1 64565U 25135AP  26160.29593978  .00001102  00000+0  11101-3 0  9999
2 64565  97.7690 274.2983 0001530 352.8665   7.2532 14.93174752 52699
LEMUR-2-SEJONG-2        
1 64586U 25135BL  26160.28215525  .00003763  00000+0  33512-3 0  9995
2 64586  97.7685 275.3584 0004480  15.0916 345.0438 14.96638657 52767
LEMUR-2-HUBBLE-5        
1 64840U 25135BT  26160.25496641  .00001717  00000+0  16594-3 0  9993
2 64840  97.7710 274.8786 0005701  20.3611 339.7835 14.94110861 52722
LEMUR-2-KARENDARRELL    
1 64841U 25135BU  26160.31360258  .00006548  00000+0  53081-3 0  9994
2 64841  97.7668 276.5364 0009149 232.7266 127.3124 14.99995958 52838
LEMUR-2-LUCILLE-ROSE    
1 65403U 25135BV  26160.28759471  .00006001  00000+0  48609-3 0  9998
2 65403  97.7767 276.5201 0010698 313.8437  46.1901 15.00053411 47450
LEMUR-2-AFFIE-WAUWIE    
1 66295U 25248C   26160.27076275  .00011685  00000+0  44418-3 0  9994
2 66295  45.3882 157.8710 0008476  30.7029 329.4355 15.26913101 33382
LEMUR-2-DEANANDMAEVE    
1 66678U 25276N   26159.75480583  .00007447  00000+0  35240-3 0  9996
2 66678  97.4209 233.3710 0006468  41.6458 318.5268 15.19629534 29130
LEMUR-2-STAS-GORBUK     
1 66686U 25276W   26160.09670755  .00004908  00000+0  23570-3 0  9998
2 66686  97.4245 233.7628 0005917  41.0209 319.1470 15.19293405 29188
LEMUR-2-TEODOR          
1 66768U 25276DG  26159.76039806  .00006349  00000+0  28971-3 0  9998
2 66768  97.4147 233.6579 0001844 123.1960 236.9453 15.20959604 29162
